Store,Address,City,State,Full Address,lat,lon
Berkeley Bowl,2020 Oregon St,Berkeley,California,"2020 Oregon St, Berkeley, California",37.857113,-122.2672497
Berkeley Bowl West,920 Heinz Avenue,Berkeley,California,"920 Heinz Avenue, Berkeley, California",37.8535336,-122.2903762
Diablo Foods-Lafeyette,3615 Mt Diablo Blvd,Lafayette,California,"3615 Mt Diablo Blvd, Lafayette, California",37.8906975,-122.1244815
Draeger's-Danville,291 Utah Ave.,South San Francisco,California,"291 Utah Ave., South San Francisco, California",37.6477383,-122.3948697
Encinal Market,3211 Encinal Ave.,Alameda,California,"3211 Encinal Ave., Alameda, California",37.7562902,-122.2336718
Farmer Joe's - Fruitvale Ave.,3420 Fruitvale Ave.,Oakland,California,"3420 Fruitvale Ave., Oakland, California",37.7994769,-122.2162274
Farmer Joe's - MacArthur Blvd,3501 MacArthur Blvd,Oakland,California,"3501 MacArthur Blvd, Oakland, California",37.7934425,-122.2007221
Gazzali's,7000 Bancroft Avenue,Oakland,California,"7000 Bancroft Avenue, Oakland, California",37.7679644,-122.1775485
Jules Thin Crust-Danville,820 Sycamore Valley Rd.,Danville,California,"820 Sycamore Valley Rd., Danville, California",37.8121227,-121.9984395
Jules Thin Crust-Oakland,5804 College Ave.,Oakland,California,"5804 College Ave., Oakland, California",37.8462971,-122.2516742
Lucca Deli,3121 Castro Valley Blvd.,Castro Valley,California,"3121 Castro Valley Blvd., Castro Valley, California",37.6952372,-122.0807308
Mi Tierra Foods,2082 San Pablo Ave.,Berkeley,California,"2082 San Pablo Ave., Berkeley, California",37.8679351,-122.2919492
Monterey Fish Mkt.,1582 Hopkins St.,Berkeley,California,"1582 Hopkins St., Berkeley, California",37.8816619,-122.281529
Monterey Foods Market,1550 Hopkins Street,Berkeley,California,"1550 Hopkins Street, Berkeley, California",37.8811334,-122.2822692
Point Richmond Mkt.,160 Washington Ave.,Richmond,California,"160 Washington Ave., Richmond, California",37.9265131,-122.3858634
Safeway #2870 - Oakland,6310 College Avenue,Oakland,California,"6310 College Avenue, Oakland, California",37.8507561,-122.2520065
Santa Fe Market,155 W. Richmond Ave.,Richmond,California,"155 W. Richmond Ave., Richmond, California",37.9261231,-122.3858851
Village Market - Oakland,5885 Broadway Terrace,Oakland,California,"5885 Broadway Terrace, Oakland, California",37.8408031,-122.2364509
Watergate Market,2390 Powell St.,Emeryville,California,"2390 Powell St., Emeryville, California",37.8376288,-122.3026905
Bodega Bay Oyster Company,12830 Valley Ford Rd.,Petaluma,California,"12830 Valley Ford Rd., Petaluma, California",38.3135992,-122.8759106
Diekmans Bay Store - Bodega,1275 Hwy. 1,Bodega Bay,California,"1275 Hwy. 1, Bodega Bay, California",38.3333826,-123.0483447
Fisherman's Cove,1850 Bay Flat Rd.,Bodega Bay,California,"1850 Bay Flat Rd., Bodega Bay, California",38.3296486,-123.0589196
Fishetarian Fish Market,599 CA-1,Bodega Bay,California,"599 CA-1, Bodega Bay, California",38.3263644,-123.041067
Fort Ross Store,20705 Coast Hwy. #1,Jenner,California,"20705 Coast Hwy. #1, Jenner, California",38.5264166,-123.2630664
Gualala Super Market,39225 CA-1,Gualala,California,"39225 CA-1, Gualala, California",38.7674484,-123.5293856
Jenner Store,10444 Hwy 1,Jenner,California,"10444 Hwy 1, Jenner, California",38.449515,-123.1147872
Ocean Cove Store,23125 Hwy. 1,Jenner,California,"23125 Hwy. 1, Jenner, California",38.5551789,-123.3008854
Pelican Plaza #2,1400 Hwy. 1,Bodega Bay,California,"1400 Hwy. 1, Bodega Bay, California",38.3346342,-123.0486306
Pelican Plaza Grocery & Deli,1400 Hwy. 1,Bodega Bay,California,"1400 Hwy. 1, Bodega Bay, California",38.3346342,-123.0486306
Surf Super,39250 CA-1,Gualala,California,"39250 CA-1, Gualala, California",38.7667921,-123.52967
The Tides Bait & Tackle,900 CA-1,Bodega Bay,California,"900 CA-1, Bodega Bay, California",38.32917239,-123.0438586
The Tides Unocal,901 CA-1,Bodega Bay,California,"901 CA-1, Bodega Bay, California",38.32917239,-123.0438586
Valley Ford Market,14400 Hwy 1,Valley Ford,California,"14400 Hwy 1, Valley Ford, California",38.3183247,-122.9245946
76/Circle K - Tiburon,250 Tiburon Blvd.,Belvedere Tiburon,California,"250 Tiburon Blvd., Belvedere Tiburon, California",37.8983444,-122.5011386
Alcos Colonial Liquor #1,212 Tamalpais Dr.,Corte Madera,California,"212 Tamalpais Dr., Corte Madera, California",37.9258744,-122.5282359
Alcos Colonial Liquor #2,212 Tamalpais Dr.,Corte Madera,California,"212 Tamalpais Dr., Corte Madera, California",37.9258744,-122.5282359
Andronico's #7-San Anselmo,100 Center Blvd.,San Anselmo,California,"100 Center Blvd., San Anselmo, California",37.9770427,-122.5631739
Andy's Corte Madera Mkt.,195 Tamal Vista Blvd,Corte Madera,California,"195 Tamal Vista Blvd, Corte Madera, California",37.935421,-122.5179864
Andy's Local Mkt - San Rafael,75 Loch Lomond Drive,San Rafael,California,"75 Loch Lomond Drive, San Rafael, California",37.97322491,-122.4840031
Andy's Sun Valley - San Rafael,2202 Fifth Ave,San Rafael,California,"2202 Fifth Ave, San Rafael, California",37.9822222,-122.5477477
Beth's,3060 Kerner Blvd.,San Rafael,California,"3060 Kerner Blvd., San Rafael, California",37.9567512,-122.4983106
Bolinas Ave Market,4 Bolinas Ave,San Anselmo,California,"4 Bolinas Ave, San Anselmo, California",37.969664,-122.5613178
Bolinas Super Market,40 Wharf Road,Bolinas,California,"40 Wharf Road, Bolinas, California",37.9097409,-122.6850001
Cardenas Market,330 Bellam Blvd.,San Rafael,California,"330 Bellam Blvd., San Rafael, California",37.9613983,-122.5000554
Central Deli/Hse of Bagels,640 Fourth Street,San Rafael,California,"640 Fourth Street, San Rafael, California",37.9726425,-122.5222619
Chevron - Strawberry,580 Redwood Hwy,Strawberry,California,"580 Redwood Hwy, Strawberry, California",37.8899075,-122.5159479
College of Marin Bookstore,841 College Ave.,Kentfield,California,"841 College Ave., Kentfield, California",37.9534891,-122.5490564
Cowgirl Creamery,2080 Lakeville Highway,Petaluma,California,"2080 Lakeville Highway, Petaluma, California",38.2328433,-122.6093738
CVS #9219 - Greenbrae,330 Bon Air Shopping Center,Greenbrae,California,"330 Bon Air Shopping Center, Greenbrae, California",37.9489676,-122.5351643
"CVS #9316 - Grant Ave, Nov.",1707 Grant Ave.,Novato,California,"1707 Grant Ave., Novato, California",38.1079921,-122.5790739
CVS #9370 - San Anselmo,880 Sir Francis Drake Blvd.,San Anselmo,California,"880 Sir Francis Drake Blvd., San Anselmo, California",37.9811828,-122.5651131
CVS #9529 - Terra Linda,442 Las Gallinas Ave.,San Rafael,California,"442 Las Gallinas Ave., San Rafael, California",38.0048472,-122.540898
CVS #9913 - Mill Valley,759 E. Blithedale,Mill Valley,California,"759 E. Blithedale, Mill Valley, California",37.9031729,-122.5246336
CVS #9947 - Novato Blvd.,2035 Novato Blvd.,Novato,California,"2035 Novato Blvd., Novato, California",38.1108745,-122.5926796
CVS #9962 - Marin City,150 Donahue Street,Marin City,California,"150 Donahue Street, Marin City, California",37.8726928,-122.5114397
Dan's Liquor - Mill Valley,242 Shoreline Hwy,Mill Valley,California,"242 Shoreline Hwy, Mill Valley, California",37.8814359,-122.5242512
Driver's Mkt - Sausalito,200 Caledonia St.,Sausalito,California,"200 Caledonia St., Sausalito, California",37.859356,-122.4862508
Fairfax Market,2040 Sir Francis Drake Blvd,Fairfax,California,"2040 Sir Francis Drake Blvd, Fairfax, California",37.98851769,-122.5906686
Famous Deli  San Rafael,1492 Lincoln Ave,San Rafael,California,"1492 Lincoln Ave, San Rafael, California",37.9809365,-122.5225541
Fast & Easy - San Rafael,1500 E 5th St,Benicia,California,"1500 E 5th St, Benicia, California",38.0538042,-122.1450438
G Liquor & Grocery,1910 Sir Francis Drake Blvd,Fairfax,California,"1910 Sir Francis Drake Blvd, Fairfax, California",37.9874736,-122.588417
Golden Gate Market,221 Second St,Sausalito,California,"221 Second St, Sausalito, California",37.8496917,-122.4809105
Good Earth Natural Foods,720 Center Blvd.,Fairfax,California,"720 Center Blvd., Fairfax, California",37.9862744,-122.5831381
Good Earth Natural Foods-Tam,201 Flamingo Road,Mill Valley,California,"201 Flamingo Road, Mill Valley, California",37.8809998,-122.5257694
Harvest Mkt/Novato Foods,155 San Marin Dr,Novato,California,"155 San Marin Dr, Novato, California",38.12269168,-122.6031356
Ignacio Gas/76 Stn,375 Ignacio Blvd.,Novato,California,"375 Ignacio Blvd., Novato, California",38.0657433,-122.5401467
Inverness Park Market,12301 Sir Francis Drake Blvd,Inverness,California,"12301 Sir Francis Drake Blvd, Inverness, California",38.0693522,-122.8248894
Inverness Store,12784 Sir Francis Drake Blvd,Inverness,California,"12784 Sir Francis Drake Blvd, Inverness, California",38.0968722,-122.8515355
Italian Delite,971 Front Street,Novato,California,"971 Front Street, Novato, California",38.1065807,-122.5712764
Jessie Laurant Culinary,1945 Francisco Blvd.,San Rafael,California,"1945 Francisco Blvd., San Rafael, California",37.9468591,-122.4891238
Jolly King Liquors,393 Miller Ave,Mill Valley,California,"393 Miller Ave, Mill Valley, California",37.8971657,-122.5362576
Lagunitas Grocery,534 Clarence Street,Point Richmond,California,"534 Clarence Street, Point Richmond, California",37.9277062,-122.3928561
Louie's Deli & Cafe,2656 Bridgeway,Sausalito,California,"2656 Bridgeway, Sausalito, California",37.868606,-122.501782
"Lucky - Grant Ave, Novato",1761 Grant Ave.,Novato,California,"1761 Grant Ave., Novato, California",38.108428,-122.579339
Lucky - Magnolia Ave.,570 Magnolia Ave,Larkspur,California,"570 Magnolia Ave, Larkspur, California",37.9371605,-122.5335654
Marin Beverage Outlet,855 Third St.,San Rafael,California,"855 Third St., San Rafael, California",37.9715278,-122.5257775
Marin Cheese Factory,7500 Red Hill Rd,Petaluma,California,"7500 Red Hill Rd, Petaluma, California",38.1697552,-122.6736203
Marinwood Market,155 Marinwood Ave.,San Rafael,California,"155 Marinwood Ave., San Rafael, California",38.0323868,-122.5385944
Matt & Jeff's Carwash,125 Vintage Way,Novato,California,"125 Vintage Way, Novato, California",38.0917645,-122.5567712
Mi Pueblo,330 Bellam Blvd.,San Rafael,California,"330 Bellam Blvd., San Rafael, California",37.9613983,-122.5000554
Mike's Liquor,1102 Grant Avenue,Novato,California,"1102 Grant Avenue, Novato, California",38.1078811,-122.5713242
Mill Valley Market,12 Corte Madera Ave.,Mill Valley,California,"12 Corte Madera Ave., Mill Valley, California",37.9067815,-122.5473663
Mollie Stone #1-Sausalito,100 Harbor Dr.,Sausalito,California,"100 Harbor Dr., Sausalito, California",37.8666543,-122.4995249
Mollie Stone #4-Greenbrae,270 Bon Air Shopping Center,Greenbrae,California,"270 Bon Air Shopping Center, Greenbrae, California",37.9438199,-122.5396228
Nugget - #14 Tiburon,1 Blackfield Drive,Belvedere Tiburon,California,"1 Blackfield Drive, Belvedere Tiburon, California",37.8992848,-122.5002555
Nugget - #15 Corte Madera,5627 Paradise  Drive,Corte Madera,California,"5627 Paradise  Drive, Corte Madera, California",37.9190947,-122.5078265
Nugget - #16 Novato,470 Ignacio Blvd.,Novato,California,"470 Ignacio Blvd., Novato, California",38.0674838,-122.5428977
Palace Market,11300 CA-1,Point Reyes Station,California,"11300 CA-1, Point Reyes Station, California",38.0683888,-122.8061758
Perry's-Fairfax,1916 Sir Francis Drake Blvd,Fairfax,California,"1916 Sir Francis Drake Blvd, Fairfax, California",37.9875026,-122.588682
Perry's-Novato,7380 Redwood Blvd,Novato,California,"7380 Redwood Blvd, Novato, California",38.1080405,-122.5695534
Perry's-San Rafael,909 Lincoln Ave,San Rafael,California,"909 Lincoln Ave, San Rafael, California",37.9720639,-122.5243021
Rocky's Meat & Deli,71 San Pablo Ave,San Rafael,California,"71 San Pablo Ave, San Rafael, California",37.9958686,-122.5284249
Runway Cafe,"6 Hamilton Landing, Suite 100",Novato,California,"6 Hamilton Landing, Suite 100, Novato, California",38.0578027,-122.5142131
Safeway #1723-San Anselmo,838 Sir Francis Drake Blvd.,San Anselmo,California,"838 Sir Francis Drake Blvd., San Anselmo, California",37.9807149,-122.5642294
Safeway #2318-Corte Madera,137 Corte Madera Town Center,Corte Madera,California,"137 Corte Madera Town Center, Corte Madera, California",37.9279695,-122.5177114
"Safeway #2455-Center Blvd, SA",100 Center Blvd.,San Anselmo,California,"100 Center Blvd., San Anselmo, California",37.9770427,-122.5631739
Safeway #2718-Strawberry,110 Strawberry Village,Mill Valley,California,"110 Strawberry Village, Mill Valley, California",37.8992988,-122.5148207
Safeway #2781-Mill Valley,110 Strawberry Village,Mill Valley,California,"110 Strawberry Village, Mill Valley, California",37.8992988,-122.5148207
Safeway #2828-Ignacio,5720 Nave Dr.,Novato,California,"5720 Nave Dr., Novato, California",38.062302,-122.5321069
"Safeway #653-B St., San Rafael",700 B St.,San Rafael,California,"700 B St., San Rafael, California",37.9704155,-122.5293984
Safeway #788-Mill Valley,1 Camino Alto,Mill Valley,California,"1 Camino Alto, Mill Valley, California",37.8941622,-122.5314402
Safeway #932 San Rafael,950 Las Gallinas,San Rafael,California,"950 Las Gallinas, San Rafael, California",38.0084799,-122.5483222
Safeway #979 Novato,900 Diablo Ave.,Novato,California,"900 Diablo Ave., Novato, California",38.1037808,-122.5716519
"Safeway #979-Diablo Ave,Nov.",900 Diablo Ave.,Novato,California,"900 Diablo Ave., Novato, California",38.1037808,-122.5716519
Santa Venetia Super,71 San Pablo Ave,San Rafael,California,"71 San Pablo Ave, San Rafael, California",37.9958686,-122.5284249
Sausalito Market,46 Caledonia,Sausalito,California,"46 Caledonia, Sausalito, California",37.858653,-122.4852029
Scotty's Market,620 Freitas Parkway,San Rafael,California,"620 Freitas Parkway, San Rafael, California",38.0132671,-122.5600319
Seven Eleven -Shoreline,371 Shoreline Hwy.,Mill Valley,California,"371 Shoreline Hwy., Mill Valley, California",37.8788829,-122.5332172
"Seven Eleven-Miller Ave,M.V.",349 Miller Ave.,Mill Valley,California,"349 Miller Ave., Mill Valley, California",37.8985731,-122.5376498
"Seven Eleven-Redwood Hwy,M.V.",650 Redwood Hwy.,Mill Valley,California,"650 Redwood Hwy., Mill Valley, California",37.8911462,-122.5160216
Seven Eleven-Sausalito,1901 Bridgeway Blvd.,Sausalito,California,"1901 Bridgeway Blvd., Sausalito, California",37.861564,-122.4943541
Smart & Final - San Rafael,925 Anderson Drive,San Rafael,California,"925 Anderson Drive, San Rafael, California",37.9573657,-122.5068323
Smith Ranch Deli,101 Smith Ranch Rd.,San Rafael,California,"101 Smith Ranch Rd., San Rafael, California",38.0200893,-122.5336738
Stinson Beach Market,"Hwy. 1, Calle Del Mar",Stinson Beach,California,"Hwy. 1, Calle Del Mar, Stinson Beach, California",37.8984967,-122.6398054
Target-Marin City,180 Donahue St.,Sausalito,California,"180 Donahue St., Sausalito, California",37.873758,-122.5109307
Target-Novato,200 Vintage Way,Novato,California,"200 Vintage Way, Novato, California",38.0899033,-122.5526527
Target-San Rafael,125 Shoreline Pkwy,San Rafael,California,"125 Shoreline Pkwy, San Rafael, California",37.9555128,-122.4914782
The Bait Shop Market & Deli,#1 Gate 6 Rd,Sausalito,California,"#1 Gate 6 Rd, Sausalito, California",37.8733515,-122.5064931
"Tomales Bay Foods, Inc.",80 4th Street,Point Reyes Station,California,"80 4th Street, Point Reyes Station, California",38.0681704,-122.8071713
Uchiwa Ramen Restaurant,821 B Street,San Rafael,California,"821 B Street, San Rafael, California",37.9717836,-122.5300389
United Liq/Gather Wine-Lrkspr,1110 Magnolia Ave.,Larkspur,California,"1110 Magnolia Ave., Larkspur, California",37.9473046,-122.5465836
United Liquors-San Rafael,1556-4th St.,San Rafael,California,"1556-4th St., San Rafael, California",37.9741791,-122.535625
United Market - San Anselmo,100 Red Hill Ave,San Anselmo,California,"100 Red Hill Ave, San Anselmo, California",37.9770437,-122.5530946
United Market - San Rafael,515 3rd St.,San Rafael,California,"515 3rd St., San Rafael, California",37.9705627,-122.5198599
United SA -Deli/Bakery/Produce,100 Red Hill Ave,San Anselmo,California,"100 Red Hill Ave, San Anselmo, California",37.9770437,-122.5530946
United SR -Deli/Bakery/Produce,515 3rd St.,San Rafael,California,"515 3rd St., San Rafael, California",37.9705627,-122.5198599
Whale of a Deli,997 Mesa Road,Point Reyes Station,California,"997 Mesa Road, Point Reyes Station, California",38.0671237,-122.804006
Woodacre Market & Deli,175 San Geronimo Valley Dr,Woodacre,California,"175 San Geronimo Valley Dr, Woodacre, California",38.0129269,-122.6435006
Woodland Gas,1 Kent Avenue,Kentfield,California,"1 Kent Avenue, Kentfield, California",37.9514419,-122.5499984
Woodlands - Drop Ship,735 College Ave,Kentfield,California,"735 College Ave, Kentfield, California",37.9523066,-122.5500898
Woodlands #2 - Tiburon,1550 Tiburon Blvd,Tiburon,California,"1550 Tiburon Blvd, Tiburon, California",37.8753884,-122.4606121
Woodlands #2/Tib. - Drop Ship,1551 Tiburon Blvd,Tiburon,California,"1551 Tiburon Blvd, Tiburon, California",37.8759802,-122.4600966
Woodlands Market,735 College Ave,Kentfield,California,"735 College Ave, Kentfield, California",37.9523066,-122.5500898
Woodlands Meat #2 Tiburon,1550 Tiburon Blvd,Belvedere Tiburon,California,"1550 Tiburon Blvd, Belvedere Tiburon, California",37.8753884,-122.4606121
Woodlands Meat Dpt.,735 College Ave.,Greenbrae,California,"735 College Ave., Greenbrae, California",37.9523066,-122.5500898
Zee's Deli Wine & Spirits,913 Sir Francis Drake Blvd.,Kentfield,California,"913 Sir Francis Drake Blvd., Kentfield, California",37.9538813,-122.5457812
ZSeven Eleven-Sausalito,1901 Bridgeway Blvd.,Sausalito,California,"1901 Bridgeway Blvd., Sausalito, California",37.861564,-122.4943541
Beringer Vineyards,2000 Main St,St. Helena,California,"2000 Main St, St. Helena, California",38.5110701,-122.4807557
Brown's Valley Meat Dept.,3263 Brown's Valley Rd.,Napa,California,"3263 Brown's Valley Rd., Napa, California",38.3043502,-122.3296176
Brown's Valley Mkt.,3263 Brown's Valley Rd.,Napa,California,"3263 Brown's Valley Rd., Napa, California",38.3043502,-122.3296176
Cal Mart-Calistoga,1491 Lincoln Ave.,Calistoga,California,"1491 Lincoln Ave., Calistoga, California",38.5803165,-122.5790298
Calistoga Liquor,1102 Tubbs Lane,Calistoga,California,"1102 Tubbs Lane, Calistoga, California",38.5887974,-122.6067692
College Mercantile,One Angwin Ave.,Angwin,California,"One Angwin Ave., Angwin, California",38.570559,-122.4420866
Delta Farmers Market,2510 State Hwy 12,Isleton,California,"2510 State Hwy 12, Isleton, California",38.1542071,-121.6759418
Gary's Wine & Marketplace,607 St. Helena Hwy,St Helena,California,"607 St. Helena Hwy, St Helena, California",38.4886028,-122.4503951
Giugni's Grocery,1227 Main St.,St Helena,California,"1227 Main St., St Helena, California",38.5040202,-122.4686059
Lira's Supermarket,609 Hwy 12,Rio Vista,California,"609 Hwy 12, Rio Vista, California",38.1603388,-121.6943219
Napa Sea Ranch,3333 Cuttings Wharf Rd.,Napa,California,"3333 Cuttings Wharf Rd., Napa, California",38.2297456,-122.3071833
Napa Valley Marina,1200 Milton Rd.,Napa,California,"1200 Milton Rd., Napa, California",38.2226976,-122.3141841
Oakville Grocery - Oakville,7856 St Helena Hwy,Oakville,California,"7856 St Helena Hwy, Oakville, California",38.437357,-122.402946
Puerto Vallerta Market,1009 Foothill Blvd.,Calistoga,California,"1009 Foothill Blvd., Calistoga, California",38.5747108,-122.5795599
Raley's #319(Napa),217 Soscol Ave.,Napa,California,"217 Soscol Ave., Napa, California",38.2834315,-122.2776174
Ranch Market,4215 Solano,Napa,California,"4215 Solano, Napa, California",38.3362058,-122.3231739
Ranch Market Too!,6498 Washington St.,Yountville,California,"6498 Washington St., Yountville, California",38.4006361,-122.3594155
"Safeway #2449 Jefferson, Napa",3375 Jefferson Square,Napa,California,"3375 Jefferson Square, Napa, California",38.3212907,-122.3017161
Safeway #2605 - St. Helena,1026 Hunt Ave.,St Helena,California,"1026 Hunt Ave., St Helena, California",38.5058606,-122.4680884
"Safeway #732 Jefferson Sq,Napa",3375 Jefferson Square,Napa,California,"3375 Jefferson Square, Napa, California",38.3212907,-122.3017161
St. Helena Hospital Gift Shop,10 Woodland Rd.,St Helena,California,"10 Woodland Rd., St Helena, California",38.5425498,-122.4748281
Station Mkt,1153 Main St.,St Helena,California,"1153 Main St., St Helena, California",38.5035166,-122.4678745
Sunshine Mkt. - St. Helena,1115 Main St.,St Helena,California,"1115 Main St., St Helena, California",38.5027302,-122.4676882
V. Sattui Winery,1111 White Lane,St. Helena,California,"1111 White Lane, St. Helena, California",38.4890009,-122.4481801
Vallerga's #2 (Redwood),45 Lynn Drive,Napa,California,"45 Lynn Drive, Napa, California",38.3162688,-122.3311896
Andronico's #6-Los Altos,690 Los Altos Rancho,Los Altos,California,"690 Los Altos Rancho, Los Altos, California",37.3608389,-122.0969921
Bianchini's Mkt - Alpine Rd.,3130 Alpine Rd,Portola Valley,California,"3130 Alpine Rd, Portola Valley, California",37.4023519,-122.1931182
Bianchini's Mkt - San Carlos,810 Laurel St.,San Carlos,California,"810 Laurel St., San Carlos, California",37.5032121,-122.2579002
Coastside Market,501 Virginia Ave,Moss Beach,California,"501 Virginia Ave, Moss Beach, California",37.5275185,-122.5127431
Delucchi's Market,3640 Florence St.,Redwood City,California,"3640 Florence St., Redwood City, California",37.4782334,-122.1884527
Draeger's-Los Altos,342 1st St,Los Altos,California,"342 1st St, Los Altos, California",37.37643804,-122.1169251
Draeger's-Menlo Park,1010 University Dr,Menlo Park,California,"1010 University Dr, Menlo Park, California",37.4493316,-122.185159
Draeger's-San Mateo,222 E 4th Ave,San Mateo,California,"222 E 4th Ave, San Mateo, California",37.5642876,-122.3214694
Grocery Mart,8445 Cabrillo Hwy,Montara,California,"8445 Cabrillo Hwy, Montara, California",37.5416693,-122.5158153
Key Market #1 1063 Upton  St,Key Market Admin Office,San Carlos,California,"Key Market Admin Office, San Carlos, California",37.5712092,-122.3105263
Miki's Farm Fresh Mkt.,3445 Alma St. #A,Palo Alto,California,"3445 Alma St. #A, Palo Alto, California",37.4189358,-122.1244371
Mollie Stone #3-Palo Alto,164 S. California,Palo Alto,California,"164 S. California, Palo Alto, California",37.4290013,-122.1431585
Mollie Stone #5-San Bruno,22 Bayhill Shopping Center,San Bruno,California,"22 Bayhill Shopping Center, San Bruno, California",37.6260556,-122.4273479
Mollie Stone #6-Burlingame,1477 Chapman Ave.,Burlingame,California,"1477 Chapman Ave., Burlingame, California",37.5772168,-122.350384
Mollie Stone #7-San Mateo,49 West 42nd Avenue,San Mateo,California,"49 West 42nd Avenue, San Mateo, California",37.529227,-122.2899332
Oceana Market,200 Eureka Square,Pacifica,California,"200 Eureka Square, Pacifica, California",37.6329118,-122.4877634
Piazza Fine Foods-Palo Alto,3922 Middlefield Rd,Palo Alto,California,"3922 Middlefield Rd, Palo Alto, California",37.4187416,-122.1101055
Piazza Fine Foods-San Mateo,1218 W Hillsdale Blvd,San Mateo,California,"1218 W Hillsdale Blvd, San Mateo, California",37.5339385,-122.3258978
Roberts Market - Woodside,3015 Woodside Road,Woodside,California,"3015 Woodside Road, Woodside, California",37.4293953,-122.2542665
Roberts Market-Portola Valley,4420 Alpine Rd,Portola Valley,California,"4420 Alpine Rd, Portola Valley, California",37.372905,-122.2073279
Spangler's Deli,101 Main Street,Half Moon Bay,California,"101 Main Street, Half Moon Bay, California",37.4697067,-122.4313018
Spangler's Market,401 Ave Alhambra,Half Moon Bay,California,"401 Ave Alhambra, Half Moon Bay, California",37.504506,-122.4771076
Sun Valley #2 - Pacifica,230 Reina Del Mar Ave,Pacifica,California,"230 Reina Del Mar Ave, Pacifica, California",37.6135688,-122.4863271
Sun Valley Fine Foods,1015 Terra Nova Blvd,Pacifica,California,"1015 Terra Nova Blvd, Pacifica, California",37.5827019,-122.4754298
Zanottos - Naglee,1970 Naglee Ave.,San Jose,California,"1970 Naglee Ave., San Jose, California",37.3279247,-121.9314005
Zanotto's - Sunnyvale,1356 Mary Avenue,Sunnyvale,California,"1356 Mary Avenue, Sunnyvale, California",37.3506454,-122.0496073
Zanotto's - SW Expressway,1520 Southwest Expy,San Jose,California,"1520 Southwest Expy, San Jose, California",37.3103029,-121.9169851
Zanotto's - Willow Glen,1421 Foxworthy Ave.,San Jose,California,"1421 Foxworthy Ave., San Jose, California",37.2753744,-121.8922768
Nugget - Warehouse,2170 Hanson Way,Woodland,California,"2170 Hanson Way, Woodland, California",38.6793394,-121.7226708
17th & Balboa Market,1601 Balboa St,San Francisco,California,"1601 Balboa St, San Francisco, California",37.7765,-122.476154
17th & Cole Market,1400 Cole St,San Francisco,California,"1400 Cole St, San Francisco, California",37.7615328,-122.4488691
25th & Clement Produce,2354 Clement St,San Francisco,California,"2354 Clement St, San Francisco, California",37.7822271,-122.4847353
300 Church St. Market,300 Church St.,San Francisco,California,"300 Church St., San Francisco, California",37.7659705,-122.4290003
3rd Ave Food Market,4101 California St,San Francisco,California,"4101 California St, San Francisco, California",37.7851402,-122.4615188
6001 California St. Market,6001 California St,San Francisco,California,"6001 California St, San Francisco, California",37.7837674,-122.4819717
828 Market,Irving & 10th,San Francisco,California,"Irving & 10th, San Francisco, California",37.764006,-122.4674105
Amal's Deli,1416 Haight St,San Francisco,California,"1416 Haight St, San Francisco, California",37.7703787,-122.4457064
Andronico's #3-San Francisco,1200 Irving St.,San Francisco,California,"1200 Irving St., San Francisco, California",37.7641482,-122.4711457
Antonelli's (inside Cal Mart),3585 California St.,San Francisco,California,"3585 California St., San Francisco, California",37.7861846,-122.452872
Ashbury Market,205 Fredrick St,San Francisco,California,"205 Fredrick St, San Francisco, California",37.7670661,-122.4466132
Balboa Bi Rite,2449 Balboa Street,San Francisco,California,"2449 Balboa Street, San Francisco, California",37.7760691,-122.4852573
Balboa Liquor & Deli,3524 Balboa St.,San Francisco,California,"3524 Balboa St., San Francisco, California",37.7759437,-122.4967536
Better Foods,3149 Balboa Street,San Francisco,California,"3149 Balboa Street, San Francisco, California",37.7757573,-122.4928297
Bryan's,3445 California St.,San Francisco,California,"3445 California St., San Francisco, California",37.7864626,-122.4508817
Cal Mart -San Francisco,3585 California St.,San Francisco,California,"3585 California St., San Francisco, California",37.7861846,-122.452872
Canyon Market,2815 Diamond Street,San Francisco,California,"2815 Diamond Street, San Francisco, California",37.7340832,-122.4336521
Chloe's,1399 Church St.,San Francisco,California,"1399 Church St., San Francisco, California",37.7486499,-122.4269718
Cindy,2084 Hayes St,San Francisco,California,"2084 Hayes St, San Francisco, California",37.7734499,-122.450826
CVS #10188-Haight St.,499 Haight St,San Francisco,California,"499 Haight St, San Francisco, California",37.7719419,-122.4301479
CVS #4675 - SF,377 32nd Ave.,San Francisco,California,"377 32nd Ave., San Francisco, California",37.7820741,-122.4928931
Denhard's Market,701 10th Ave.,San Fransisco,California,"701 10th Ave., San Fransisco, California",37.7750284,-122.4683737
Drink Liquor/Jong & Chung,601 - 2nd Ave,San Francisco,California,"601 - 2nd Ave, San Francisco, California",37.777278,-122.4598907
Eureka Mkt. - S.F.,4151 - 17th Street,San Francisco,California,"4151 - 17th Street, San Francisco, California",37.7621219,-122.4385676
Falletti Foods - SF,308 Broderick Street,San Francisco,California,"308 Broderick Street, San Francisco, California",37.7732175,-122.4389052
Food 24 Hr. Mkt.-Fulton&Divis.,793 Divisadero,San Francisco,California,"793 Divisadero, San Francisco, California",37.7767348,-122.438334
Fulton & Brodrick,667 Broderick St.,San Francisco,California,"667 Broderick St., San Francisco, California",37.7765,-122.4401015
Fulton Foods,1801 Fulton St.,San Francisco,California,"1801 Fulton St., San Francisco, California",37.7756425,-122.4467344
Georges Market,702 14th St,San Francisco,California,"702 14th St, San Francisco, California",37.7678979,-122.4292724
Golden Bear Market,1401 6th Ave,San Francisco,California,"1401 6th Ave, San Francisco, California",37.7622021,-122.4631253
Grove Street Mkt.,500 Grove Street,San Francisco,California,"500 Grove Street, San Francisco, California",37.77769769,-122.4250613
Haight & Central,1301 Haight St.,San Francisco,California,"1301 Haight St., San Francisco, California",37.7702788,-122.443915
Haight & Filmore Foods,501 Haight St.,San Francisco,California,"501 Haight St., San Francisco, California",37.7718245,-122.4319695
Haight Street Market,1530  Haight Street,San Francisco,California,"1530  Haight Street, San Francisco, California",37.7702281,-122.4475864
Harvest Hills Market,3216 Folsom St.,San Francisco,California,"3216 Folsom St., San Francisco, California",37.7467317,-122.4138313
Harvest Urban Mkt - Market St.,2285 Market St.,San Francisco,California,"2285 Market St., San Francisco, California",37.764496,-122.4322796
Harvest Urban Mkt-8th St.,191 - 8th St.,San Francisco,California,"191 - 8th St., San Francisco, California",37.7765869,-122.4117295
Hayes Market,698 Hayes Street,San Francisco,California,"698 Hayes Street, San Francisco, California",37.7764245,-122.4278124
Jump Start Market,1192 Guerrero Street,San Francisco,California,"1192 Guerrero Street, San Francisco, California",37.7521471,-122.4231975
KD's Grog & Grocery,2416 Market Street,San Francisco,California,"2416 Market Street, San Francisco, California",37.7627504,-122.4356688
Key Food Mart,501 Filmore St.,San Francisco,California,"501 Filmore St., San Francisco, California",37.774251,-122.431075
KT Liquors,1900 Hayes St.,San Francisco,California,"1900 Hayes St., San Francisco, California",37.773841,-122.4479402
Liquid Experience,1589 Haight St.,San Francisco,California,"1589 Haight St., San Francisco, California",37.769662,-122.4481946
M & K Market,1701 Anza St,San Francisco,California,"1701 Anza St, San Francisco, California",37.7787908,-122.4664278
Madera Liquor,4401 Geary Blvd.,San Francisco,California,"4401 Geary Blvd., San Francisco, California",37.7807381,-122.4665715
Marina Meats,2395 Chestnut St.,San Francisco,California,"2395 Chestnut St., San Francisco, California",37.7999117,-122.4426784
Marina Super,2323 Chestnut St.,San Francisco,California,"2323 Chestnut St., San Francisco, California",37.7999237,-122.4416772
Martell's,5615 Geary Blvd.,San Francisco,California,"5615 Geary Blvd., San Francisco, California",37.7800098,-122.4797387
Mollie Stone - 18th & Castro,4201 - 18th Street,San Francisco,California,"4201 - 18th Street, San Francisco, California",37.7606086,-122.4363285
Mollie Stone #8-Tower Mkt.,635 Portola St.,San Francisco,California,"635 Portola St., San Francisco, California",37.7447894,-122.4523297
"Mollie Stone-Calif St, SF",2435 California St,San Francisco,California,"2435 California St, San Francisco, California",37.7885472,-122.434559
New California Food Market,5701 California St,San Francisco,California,"5701 California St, San Francisco, California",37.7840401,-122.4788543
New Upper Terrace Market,4499 17th St,San Francisco,California,"4499 17th St, San Francisco, California",37.7617669,-122.4452082
Nick's Super,144 Page Street,San Francisco,California,"144 Page Street, San Francisco, California",37.7742409,-122.4232334
Ninth & Judah Liquors,1400 9th Ave,San Francisco,California,"1400 9th Ave, San Francisco, California",37.7620731,-122.4660394
Noe Valley Market,200 Noe Street,San Francisco,California,"200 Noe Street, San Francisco, California",37.7657253,-122.4334309
Nopa Liquor & Deli,1601 Fulton St.,San Francisco,California,"1601 Fulton St., San Francisco, California",37.7759914,-122.4432515
Oak & Scott (Oak Fair Mkt),999 Oak Street,San Francisco,California,"999 Oak Street, San Francisco, California",37.7732128,-122.4355706
Oceanview Market,7501 Geary Blvd,San Francisco,California,"7501 Geary Blvd, San Francisco, California",37.7791501,-122.4999007
O'Looney's,588 Haight Street,San Francisco,California,"588 Haight Street, San Francisco, California",37.7721202,-122.4318825
Pacific Gateway Concessions,273 E. Harris Ave.,South San Francisco,California,"273 E. Harris Ave., South San Francisco, California",37.6510178,-122.3963609
Park Presidio Liquors,4400 California St,San Francisco,California,"4400 California St, San Francisco, California",37.78523,-122.4647562
Parkview,501 Frederick St,San Francisco,California,"501 Frederick St, San Francisco, California",37.7668155,-122.4483465
Rainbow Grocery,1745 Folsom St.,San Francisco,California,"1745 Folsom St., San Francisco, California",37.7691136,-122.4153147
Richmond Market,41st & Balboa,San Francisco,California,"41st & Balboa, San Francisco, California",37.7755279,-122.5016179
Rosenberg's,276 Noe Street,San Francisco,California,"276 Noe Street, San Francisco, California",37.7646454,-122.4333603
Roxie Market & Deli,500 Kirkham Street,San Francisco,California,"500 Kirkham Street, San Francisco, California",37.7604947,-122.4663836
S&A Market,98-1/2 Sanchez St.,San Francisco,California,"98-1/2 Sanchez St., San Francisco, California",37.767715,-122.4314401
"Safeway #1507-Market St., S.F.",2020 Market St.,San Francisco,California,"2020 Market St., San Francisco, California",37.7688487,-122.4279242
"Safeway #2452 -Irving St, SF",1200 Irving St.,San Francisco,California,"1200 Irving St., San Francisco, California",37.7641482,-122.4711457
"Safeway #785-LaPlaya, S.F.",850 La Playa,San Francisco,California,"850 La Playa, San Francisco, California",37.7725837,-122.5094277
"Safeway#2646-7th Ave., S.F.",735 - 7th Ave.,San Francisco,California,"735 - 7th Ave., San Francisco, California",37.7745526,-122.4653886
Save More Meats,74 W. Manor Drive,Pacifica,California,"74 W. Manor Drive, Pacifica, California",37.6491957,-122.4918761
"Seven Eleven-Geary St., S.F.",5100 Geary Blvd.,San Francisco,California,"5100 Geary Blvd., San Francisco, California",37.78088,-122.47417
Smart & Final - S.F.,Seventh & Clement,San Francisco,California,"Seventh & Clement, San Francisco, California",37.7829042,-122.4655036
Stand-Bi Market,1400 8th St,San Francisco,California,"1400 8th St, San Francisco, California",37.7662914,-122.3994047
Star Ell Market,501 Divisadero Street,San Francisco,California,"501 Divisadero Street, San Francisco, California",37.7741612,-122.4379707
State Market,4751 Geary Blvd.,San Francisco,California,"4751 Geary Blvd., San Francisco, California",37.78050846,-122.4705694
Sunset Super #3 - Vicente St.,2801 Vicente Street,San Francisco,California,"2801 Vicente Street, San Francisco, California",37.7380921,-122.4973774
Sunshine - Haight St.,1754 Haight St.,San Francisco,California,"1754 Haight St., San Francisco, California",37.7696934,-122.4512576
Superette Market,901 Haight St,San Francisco,California,"901 Haight St, San Francisco, California",37.7710452,-122.4371911
Tiger's Liquor,2400 Clement St,San Francisco,California,"2400 Clement St, San Francisco, California",37.7821357,-122.485051
Tim's,667 Fillmore St.,San Francisco,California,"667 Fillmore St., San Francisco, California",37.7756807,-122.4314401
Veteran's Canteen #662,4140 Clement,San Francisco,California,"4140 Clement, San Francisco, California",37.7813115,-122.5016509
Victoria Liquor,201 Gough Street,San Francisco,California,"201 Gough Street, San Francisco, California",37.7751864,-122.4230172
Walgreens  Gough,300 Gough Street,San Francisco,California,"300 Gough Street, San Francisco, California",37.7761256,-122.4226848
Walgreen's-Clement St.,719 Clement Street,San Francisco,California,"719 Clement Street, San Francisco, California",37.7826186,-122.467047
Walgreen's-Geary St.,5280 Geary Blvd,San Francisco,California,"5280 Geary Blvd, San Francisco, California",37.7806818,-122.4759741
Walgreen's-Point Lobos,25 Point Lobo Ave.,San Francisco,California,"25 Point Lobo Ave., San Francisco, California",37.7794398,-122.5037248
Albertsons-Rohnert Park,6335 Commerce Blvd,Rohnert Park,California,"6335 Commerce Blvd, Rohnert Park, California",38.3473192,-122.7097935
Andy's Produce - Sebastopol,1691 Gravenstein Hwy.,Sebastopol,California,"1691 Gravenstein Hwy., Sebastopol, California",38.3822174,-122.8074137
Armstrong Paper Group,2329 Circadian Way,Santa Rosa,California,"2329 Circadian Way, Santa Rosa, California",38.4215267,-122.7551604
Bartletts Market,9890 Main St.,Monte Rio,California,"9890 Main St., Monte Rio, California",38.4648569,-123.0103671
Berry's (Dave's),5290 Aero Dr.,Santa Rosa,California,"5290 Aero Dr., Santa Rosa, California",38.5108248,-122.7646378
Big John's Market,1345 Healdsburg Ave.,Healdsburg,California,"1345 Healdsburg Ave., Healdsburg, California",38.6266885,-122.8737522
Bills Farm Basket,10315 Bodega Hwy,Sebastopol,California,"10315 Bodega Hwy, Sebastopol, California",38.3920577,-122.8784434
Bodega Ave. Mkt.,1105 Bodega Ave.,Petaluma,California,"1105 Bodega Ave., Petaluma, California",38.2341501,-122.6614753
Bodega Country Store,17190 Bodega Hwy,Bodega,California,"17190 Bodega Hwy, Bodega, California",38.3457762,-122.9740031
Bohemian Club-Monte Rio,624 Taylor St.,San Francisco,California,"624 Taylor St., San Francisco, California",37.7882547,-122.4115525
Broadway Mkt.,20511 Broadway,Sonoma,California,"20511 Broadway, Sonoma, California",38.2754275,-122.4608333
CVS #9152 - Sonoma,201 W Napa St Ste 35,Sonoma,California,"201 W Napa St Ste 35, Sonoma, California",38.2899739,-122.4622572
"CVS #9163 - McDowell, Pet.",291 North McDowell Blvd.,Petaluma,California,"291 North McDowell Blvd., Petaluma, California",38.2511338,-122.6313662
"CVS #9480 - E. Wash., Pet.",365 East Washington St.,Petaluma,California,"365 East Washington St., Petaluma, California",38.2386131,-122.6379009
"CVS #9656 - 4th St.,S.Rosa",2771 - 4th Street,Santa Rosa,California,"2771 - 4th Street, Santa Rosa, California",38.4506762,-122.6898328
CVS #9872 - Sebastopol,788 Gravenstein Hwy.,Sebastopol,California,"788 Gravenstein Hwy., Sebastopol, California",38.3944873,-122.8193565
CVS #9928 - Rohnert Park,6378 Commerce Blvd.,Rohnert Park,California,"6378 Commerce Blvd., Rohnert Park, California",38.3463399,-122.708343
CVS #9946 - Stony Point,463 Stony Point Rd.,Santa Rosa,California,"463 Stony Point Rd., Santa Rosa, California",38.4331391,-122.7439869
CVS #9948 - Yulupa Ave.,2700 Yulupa Ave.,Santa Rosa,California,"2700 Yulupa Ave., Santa Rosa, California",38.4281811,-122.6674342
Dave's Market,320 W. 3rd St.,Santa Rosa,California,"320 W. 3rd St., Santa Rosa, California",38.4371094,-122.718911
Ernie's Tin Bar,5100 Lakeville Hwy.,Petaluma,California,"5100 Lakeville Hwy., Petaluma, California",38.2123369,-122.5492502
Fast & Easy - Forestville,6484 Mirabel Rd.,Forestville,California,"6484 Mirabel Rd., Forestville, California",38.474125,-122.896171
Fircrest Market,998 Gravenstein Hwy. South,Sebastopol,California,"998 Gravenstein Hwy. South, Sebastopol, California",38.3907093,-122.8172324
Food Maxx-Rohnert Park,605 Rohnert Park Expressway,Rohnert Park,California,"605 Rohnert Park Expressway, Rohnert Park, California",38.3482816,-122.7250257
Food Maxx-Santa Rosa,2055 Sebastopol Rd,Santa Rosa,California,"2055 Sebastopol Rd, Santa Rosa, California",38.4269128,-122.742122
Fruit Basket #2,24101 Arnold Dr.,Sonoma,California,"24101 Arnold Dr., Sonoma, California",38.2215856,-122.4565874
Glen Ellen #12 (Willows),13751 Arnold Dr.,Glen Ellen,California,"13751 Arnold Dr., Glen Ellen, California",38.3621439,-122.5255805
Glen Ellen Village Mkt.,13751 Arnold Dr,Glen Ellen,California,"13751 Arnold Dr, Glen Ellen, California",38.3621439,-122.5255805
Glen Ellen Village/Nugget #18,13751 Arnold Dr.,Glen Ellen,California,"13751 Arnold Dr., Glen Ellen, California",38.3621439,-122.5255805
Gonnella's Country Mart,3707 Occidental Rd.,Occidental,California,"3707 Occidental Rd., Occidental, California",38.4077264,-122.9473731
Jacks Valley Store,7450 Highway 128,Philo,California,"7450 Highway 128, Philo, California",39.0745632,-123.4591762
"Longs Drugs #480-E. Wash.,Pet.",365 East Washington St.,Petaluma,California,"365 East Washington St., Petaluma, California",38.2386131,-122.6379009
Lucchessi's Deli,301 S. McDowell Blvd.,Petaluma,California,"301 S. McDowell Blvd., Petaluma, California",38.2485393,-122.6237528
Lucky - Gravenstein Hwy.,776 Gravenstein Hwy No.,Sebastopol,California,"776 Gravenstein Hwy No., Sebastopol, California",38.4072611,-122.8400927
Lucky - Lakeville Hwy.,939 Lakeville Hwy.,Petaluma,California,"939 Lakeville Hwy., Petaluma, California",38.2363505,-122.6240742
Lucky - Montgomery Village,915 Montgomery Village Ct.,Santa Rosa,California,"915 Montgomery Village Ct., Santa Rosa, California",38.4435257,-122.6860548
Lucky - Petaluma Blvd.,1000 Petaluma Blvd No.,Petaluma,California,"1000 Petaluma Blvd No., Petaluma, California",38.2453932,-122.6432244
Lucky - Sonoma Hwy.,19181 Sonoma Hwy.,Sonoma,California,"19181 Sonoma Hwy., Sonoma, California",38.3002824,-122.4768792
Molsberry Market,522 Larkfield Center,Santa Rosa,California,"522 Larkfield Center, Santa Rosa, California",38.5014548,-122.7508615
My Deli Market,1035 2nd Street,Santa Rosa,California,"1035 2nd Street, Santa Rosa, California",38.4426898,-122.7054089
Oakmont Village Mkt-Santa Rosa,6550 Oakmont Dr.,Santa Rosa,California,"6550 Oakmont Dr., Santa Rosa, California",38.4418601,-122.6056209
Oakville Grocery - Healdsburg,124 Matheson St,Healdsburg,California,"124 Matheson St, Healdsburg, California",38.6104537,-122.8689632
Oliver's - Cotati #1,546 East Cotati Ave.,Cotati,California,"546 East Cotati Ave., Cotati, California",38.3280134,-122.6981063
Oliver's - Montecito Blvd #2,560 Montecito Blvd.,Santa Rosa,California,"560 Montecito Blvd., Santa Rosa, California",38.4767589,-122.6690176
Oliver's Market-Cotati,546 E Cotati Ave,Cotati,California,"546 E Cotati Ave, Cotati, California",38.3280134,-122.6981063
Oliver's Market-Montecito Blvd,560 Montecito Center,Santa Rosa,California,"560 Montecito Center, Santa Rosa, California",38.4747366,-122.6735694
Oliver's- Windsor,9230 Old Redwood Hwy,Windsor,California,"9230 Old Redwood Hwy, Windsor, California",38.5490858,-122.8111824
Oliver's-Guy's Grocery Games,1145 Kittyhawk Blvd.,Santa Rosa,California,"1145 Kittyhawk Blvd., Santa Rosa, California",38.52149767,-122.7955296
Oliver's-Stony Point #3,461 Stony Point Rd.,Santa Rosa,California,"461 Stony Point Rd., Santa Rosa, California",38.4325504,-122.7439869
Oliver's-Stony Point Rd.,462 Stony Point Rd.,Santa Rosa,California,"462 Stony Point Rd., Santa Rosa, California",38.4325504,-122.7439869
Oliver's-Windsor #4,9230 Old Redwood Hwy,Windsor,California,"9230 Old Redwood Hwy, Windsor, California",38.5490858,-122.8111824
Pacific Market / Fiesta,550 Gravenstein Hwy N.,Sebastopol,California,"550 Gravenstein Hwy N., Sebastopol, California",38.4056633,-122.8381538
Pacific Market-Santa Rosa,1465 Town & Country Dr.,Santa Rosa,California,"1465 Town & Country Dr., Santa Rosa, California",38.4539397,-122.7022742
Petaluma Market,210 Western Ave.,Petaluma,California,"210 Western Ave., Petaluma, California",38.2339242,-122.6430264
Poppy Bank,438 - 1st Street,Santa Rosa,California,"438 - 1st Street, Santa Rosa, California",38.4374117,-122.7143525
Raley's - Petaluma,157 N. McDowell Blvd.,Petaluma,California,"157 N. McDowell Blvd., Petaluma, California",38.248197,-122.6285466
Raley's-Rohnert Park,100 Raley's Town Center,Rohnert Park,California,"100 Raley's Town Center, Rohnert Park, California",38.34669,-122.7054595
Raley's-Santa Rosa,1407 Fulton Rd.,Santa Rosa,California,"1407 Fulton Rd., Santa Rosa, California",38.4539553,-122.7712408
Raley's-Windsor,8852 Lakewood Dr.,Windsor,California,"8852 Lakewood Dr., Windsor, California",38.549344,-122.8064028
Ralph's-Sonoma,201 W. Napa St,Sonoma,California,"201 W. Napa St, Sonoma, California",38.2920295,-122.4616293
Ramazzotti,21015 Geyserville Ave,Geyserville,California,"21015 Geyserville Ave, Geyserville, California",38.7062174,-122.9040443
Rancho Mendoza - Piner Rd,1201 Piner Rd.,Santa Rosa,California,"1201 Piner Rd., Santa Rosa, California",38.4724439,-122.7394997
Rancho Mendoza - Sebastopol Rd,640 Sebastopol Rd.,Santa Rosa,California,"640 Sebastopol Rd., Santa Rosa, California",38.4296417,-122.727534
Rialto Cinemas Cerrito,10070 San Pablo Ave,El Cerrito,California,"10070 San Pablo Ave, El Cerrito, California",37.9019439,-122.3027348
Rialto Cinemas Sebastopol,6868 McKinley St,Sebastopol,California,"6868 McKinley St, Sebastopol, California",38.4039137,-122.8226417
Safeway #1265-Yulupa Ave.,2785 Yulupa Ave.,Santa Rosa,California,"2785 Yulupa Ave., Santa Rosa, California",38.4257973,-122.6685363
Safeway #1562-4th St.S.Rosa,2751 Fourth Street,Santa Rosa,California,"2751 Fourth Street, Santa Rosa, California",38.4510151,-122.6911824
Safeway #1950-Guerneville,16405 River Road,Guerneville,California,"16405 River Road, Guerneville, California",38.50198,-123.0004237
Safeway #2456-Son Mtn Pkwy,701 Sonoma Mountain Pkwy,Petaluma,California,"701 Sonoma Mountain Pkwy, Petaluma, California",38.2690659,-122.6386287
Safeway #2457-W. College Ave,1211 W. College Ave.,Santa Rosa,California,"1211 W. College Ave., Santa Rosa, California",38.446762,-122.7416052
Safeway #713-Calistoga Rd.,100 Calistoga Rd.,Santa Rosa,California,"100 Calistoga Rd., Santa Rosa, California",38.4656768,-122.6516753
"Safeway #7956-Marlow, S.Rosa",1799 Marlow Road,Santa Rosa,California,"1799 Marlow Road, Santa Rosa, California",38.4520542,-122.752896
Safeway #911-Sonoma,477 W. Napa St.,Sonoma,California,"477 W. Napa St., Sonoma, California",38.291594,-122.4677124
Safeway #918-Rohnert Park,6340 Commerce Blvd.,Rohnert Park,California,"6340 Commerce Blvd., Rohnert Park, California",38.3475652,-122.7084312
Safeway #933-Sebastopol,406 N Main St.,Sebastopol,California,"406 N Main St., Sebastopol, California",38.4044524,-122.8270548
Safeway#3011-S. McDowell,389 So. McDowell Blvd.,Petaluma,California,"389 So. McDowell Blvd., Petaluma, California",38.2491273,-122.6219167
Sequoia Market,1382 Gravenstein Hwy. South,Sebastopol,California,"1382 Gravenstein Hwy. South, Sebastopol, California",38.3845623,-122.8129014
Seven Eleven -Perry Lane,860 Perry Lane,Petaluma,California,"860 Perry Lane, Petaluma, California",38.2340894,-122.6141666
Shelton's,428 Center Street,Healdsburg,California,"428 Center Street, Healdsburg, California",38.6134735,-122.8694657
Smart & Final - Petaluma,429 N. McDowell Blvd.,Petaluma,California,"429 N. McDowell Blvd., Petaluma, California",38.252704,-122.6360465
Smart & Final #409- Santa Rosa,2805 Santa Rosa Avenue,Santa Rosa,California,"2805 Santa Rosa Avenue, Santa Rosa, California",38.4085689,-122.7138001
Sonoma Cheese Factory,2 Spain St.,Sonoma,California,"2 Spain St., Sonoma, California",38.2939694,-122.4574728
Sonoma Market,500 W Napa St,Sonoma,California,"500 W Napa St, Sonoma, California",38.2941288,-122.4685911
Sonoma Market/Nugget #17,501 W Napa St,Sonoma,California,"501 W Napa St, Sonoma, California",38.2925925,-122.4682404
Sonoma's Best,1190 East Napa Street,Sonoma,California,"1190 East Napa Street, Sonoma, California",38.2899664,-122.4358549
South City Market,301 Mountain View Ave,Petaluma,California,"301 Mountain View Ave, Petaluma, California",38.2280487,-122.6262221
Speer's Market,7891 Mirabel Road,Forestville,California,"7891 Mirabel Road, Forestville, California",38.4900218,-122.894477
SRJC Bookstore,220 Elliott Ave.,Santa Rosa,California,"220 Elliott Ave., Santa Rosa, California",38.4570447,-122.7190525
SRJC Bookstore,Petaluma Campus,Petaluma,California,"Petaluma Campus, Petaluma, California",38.2693557,-122.6349487
Target - Coddingtown,900 Coddingtown Center,Santa Rosa,California,"900 Coddingtown Center, Santa Rosa, California",38.4563591,-122.7281969
Target-Petaluma,401 Kenilworth Dr.,Petaluma,California,"401 Kenilworth Dr., Petaluma, California",38.2427934,-122.6239879
Target-Rohnert Park,475 Rohnert Pk Express Way,Rohnert Park,California,"475 Rohnert Pk Express Way, Rohnert Park, California",38.3461728,-122.7204316
Target-Santa Rosa,1980 Santa Rosa Ave.,Santa Rosa,California,"1980 Santa Rosa Ave., Santa Rosa, California",38.417287,-122.7087842
The Farmhand,15025 River Road,Guerneville,California,"15025 River Road, Guerneville, California",38.514374,-122.9831841
Walia's Fuel,910 Baywood,Petaluma,California,"910 Baywood, Petaluma, California",38.2342792,-122.6143874
Walmart- RP Neighborhood Mkt,901 Golf Course Dr,Rohnert Park,California,"901 Golf Course Dr, Rohnert Park, California",38.3615516,-122.6924655
Walmart-Rohnert Park,4625 Redwood Dr,Rohnert Park,California,"4625 Redwood Dr, Rohnert Park, California",38.367463,-122.7164204
CVS #1173 - Healdsburg,455 Center St,Healdsburg,California,"455 Center St, Healdsburg, California",38.6140218,-122.8709133
CVS #9393 - Mendocino Ave.,2075 Mendocino Ave.,Santa Rosa,California,"2075 Mendocino Ave., Santa Rosa, California",38.4601224,-122.7186669
CVS #9931 - Windsor,9030 Brooks Rd. S,Windsor,California,"9030 Brooks Rd. S, Windsor, California",38.5507046,-122.805389
Longs Drug-Healdsburg,455 Center St,Healdsburg,California,"455 Center St, Healdsburg, California",38.6140218,-122.8709133
Lucky - Bicentennial,150 Bicentennial,Santa Rosa,California,"150 Bicentennial, Santa Rosa, California",38.470385,-122.7197257
Lucky - Bicentennial,150 Bicentennial,Santa Rosa,California,"150 Bicentennial, Santa Rosa, California",38.470385,-122.7197257
Raley's-Windsor,8852 Lakewood Dr.,Windsor,California,"8852 Lakewood Dr., Windsor, California",38.549344,-122.8064028
Safeway #1434-Windsor,9080 Brooks Rd.,Windsor,California,"9080 Brooks Rd., Windsor, California",38.5516553,-122.8065101
Safeway #1576-Mendocino  Ave.,2300 Mendocino Ave.,Santa Rosa,California,"2300 Mendocino Ave., Santa Rosa, California",38.4628265,-122.7170787
Safeway #998-Healdsburg,1115 Vine St.,Healdsburg,California,"1115 Vine St., Healdsburg, California",38.6083983,-122.8729813
Walmart- Windsor,6650 Hembree Ln,Windsor,California,"6650 Hembree Ln, Windsor, California",38.5286567,-122.7899351
Central Park Liquor/Deli Plus,1900 Hayes St,San Francisco,California,"1900 Hayes St, San Francisco, California",37.77384666,-122.4478834
Famous Deli  Novato,341 Enfrente Rd,Novato,California,"341 Enfrente Rd, Novato, California",38.06755605,-122.5389702
Vintage 76 Station,1108 Main St,St Helena,California,"1108 Main St, St Helena, California",38.50355121,-122.467194